{
  "type": "FeatureCollection",
  "features": [
    {
      "type": "Feature",
      "properties": {
        "norad_id": 66660,
        "name": "K-HERO",
        "group": "last-30-days",
        "lat": 33.22149506305672,
        "lon": -98.52910003935604,
        "alt_km": 585.9646672218814,
        "timestamp": "2025-12-05T05:43:13.898272+00:00",
        "meta_object_name": "K-HERO",
        "meta_object_id": "2025-274L",
        "meta_epoch": "2025-12-04T16:42:06.852096",
        "meta_mean_motion": 14.9288769,
        "meta_eccentricity": 0.0012996,
        "meta_inclination": 97.7392,
        "meta_ra_of_asc_node": 266.0473,
        "meta_arg_of_pericenter": 311.4036,
        "meta_mean_anomaly": 48.6065,
        "meta_ephemeris_type": 0,
        "meta_classification_type": "U",
        "meta_norad_cat_id": 66660,
        "meta_element_set_no": 999,
        "meta_rev_at_epoch": 120,
        "meta_bstar": 0.00063713,
        "meta_mean_motion_dot": 6.561e-05,
        "meta_mean_motion_ddot": 0,
        "tle_line1": "1 66660U 25274L   25338.69591264  .00006561  00000+0  63713-3 0  9997",
        "tle_line2": "2 66660  97.7392 266.0473 0012996 311.4036  48.6065 14.92887690  1202"
      },
      "geometry": {
        "type": "Point",
        "coordinates": [
          -98.52910003935604,
          33.22149506305672
        ]
      }
    },
    {
      "type": "Feature",
      "properties": {
        "norad_id": 66661,
        "name": "SNUGLITE-III",
        "group": "last-30-days",
        "lat": 37.89181813485362,
        "lon": -99.49249536870937,
        "alt_km": 585.3561596966238,
        "timestamp": "2025-12-05T05:43:13.898282+00:00",
        "meta_object_name": "SNUGLITE-III",
        "meta_object_id": "2025-274M",
        "meta_epoch": "2025-12-04T13:27:54.573120",
        "meta_mean_motion": 14.93034067,
        "meta_eccentricity": 0.0013676,
        "meta_inclination": 97.7386,
        "meta_ra_of_asc_node": 265.9163,
        "meta_arg_of_pericenter": 312.7426,
        "meta_mean_anomaly": 47.2642,
        "meta_ephemeris_type": 0,
        "meta_classification_type": "U",
        "meta_norad_cat_id": 66661,
        "meta_element_set_no": 999,
        "meta_rev_at_epoch": 118,
        "meta_bstar": 0.00052492,
        "meta_mean_motion_dot": 5.415e-05,
        "meta_mean_motion_ddot": 0,
        "tle_line1": "1 66661U 25274M   25338.56104830  .00005415  00000+0  52492-3 0  9992",
        "tle_line2": "2 66661  97.7386 265.9163 0013676 312.7426  47.2642 14.93034067  1189"
      },
      "geometry": {
        "type": "Point",
        "coordinates": [
          -99.49249536870937,
          37.89181813485362
        ]
      }
    },
    {
      "type": "Feature",
      "properties": {
        "norad_id": 66662,
        "name": "2025-274N",
        "group": "last-30-days",
        "lat": 39.89368735664776,
        "lon": -99.94404630701102,
        "alt_km": 585.3350360628119,
        "timestamp": "2025-12-05T05:43:13.898294+00:00",
        "meta_object_name": "2025-274N",
        "meta_object_id": "2025-274N",
        "meta_epoch": "2025-12-04T08:37:53.431680",
        "meta_mean_motion": 14.93089567,
        "meta_eccentricity": 0.00141,
        "meta_inclination": 97.7387,
        "meta_ra_of_asc_node": 265.7189,
        "meta_arg_of_pericenter": 312.6803,
        "meta_mean_anomaly": 47.3228,
        "meta_ephemeris_type": 0,
        "meta_classification_type": "U",
        "meta_norad_cat_id": 66662,
        "meta_element_set_no": 999,
        "meta_rev_at_epoch": 115,
        "meta_bstar": 0.00038796,
        "meta_mean_motion_dot": 3.993e-05,
        "meta_mean_motion_ddot": 0,
        "tle_line1": "1 66662U 25274N   25338.35964620  .00003993  00000+0  38796-3 0  9991",
        "tle_line2": "2 66662  97.7387 265.7189 0014100 312.6803  47.3228 14.93089567  1151"
      },
      "geometry": {
        "type": "Point",
        "coordinates": [
          -99.94404630701102,
          39.89368735664776
        ]
      }
    },
    {
      "type": "Feature",
      "properties": {
        "norad_id": 66663,
        "name": "KSLV-II R/B",
        "group": "last-30-days",
        "lat": 8.336381713121956,
        "lon": 87.7929621230293,
        "alt_km": 609.5255319248508,
        "timestamp": "2025-12-05T05:43:13.898306+00:00",
        "meta_object_name": "KSLV-II R/B",
        "meta_object_id": "2025-274P",
        "meta_epoch": "2025-12-04T16:07:27.967008",
        "meta_mean_motion": 14.9720863,
        "meta_eccentricity": 0.0046484,
        "meta_inclination": 97.7407,
        "meta_ra_of_asc_node": 266.0899,
        "meta_arg_of_pericenter": 346.5952,
        "meta_mean_anomaly": 13.4031,
        "meta_ephemeris_type": 0,
        "meta_classification_type": "U",
        "meta_norad_cat_id": 66663,
        "meta_element_set_no": 999,
        "meta_rev_at_epoch": 120,
        "meta_bstar": 4.029e-05,
        "meta_mean_motion_dot": 4.14e-06,
        "meta_mean_motion_ddot": 0,
        "tle_line1": "1 66663U 25274P   25338.67185147  .00000414  00000+0  40290-4 0  9994",
        "tle_line2": "2 66663  97.7407 266.0899 0046484 346.5952  13.4031 14.97208630  1208"
      },
      "geometry": {
        "type": "Point",
        "coordinates": [
          87.7929621230293,
          8.336381713121956
        ]
      }
    },
    {
      "type": "Feature",
      "properties": {
        "norad_id": 66664,
        "name": "SOYUZ-MS 28",
        "group": "last-30-days",
        "lat": -50.763534993516096,
        "lon": 103.63857884032457,
        "alt_km": 422.58750549237266,
        "timestamp": "2025-12-05T05:43:13.898316+00:00",
        "meta_object_name": "SOYUZ-MS 28",
        "meta_object_id": "2025-275A",
        "meta_epoch": "2025-12-04T13:02:29.700384",
        "meta_mean_motion": 15.49306035,
        "meta_eccentricity": 0.0003596,
        "meta_inclination": 51.6299,
        "meta_ra_of_asc_node": 183.0583,
        "meta_arg_of_pericenter": 202.7086,
        "meta_mean_anomaly": 157.3744,
        "meta_ephemeris_type": 0,
        "meta_classification_type": "U",
        "meta_norad_cat_id": 66664,
        "meta_element_set_no": 999,
        "meta_rev_at_epoch": 117,
        "meta_bstar": 0.00029318,
        "meta_mean_motion_dot": 0.0001591,
        "meta_mean_motion_ddot": 0,
        "tle_line1": "1 66664U 25275A   25338.54339931  .00015910  00000+0  29318-3 0  9998",
        "tle_line2": "2 66664  51.6299 183.0583 0003596 202.7086 157.3744 15.49306035  1174"
      },
      "geometry": {
        "type": "Point",
        "coordinates": [
          103.63857884032457,
          -50.763534993516096
        ]
      }
    },
    {
      "type": "Feature",
      "properties": {
        "norad_id": 66820,
        "name": "KOMPSAT-7",
        "group": "last-30-days",
        "lat": -42.57938064936328,
        "lon": 98.18383257427863,
        "alt_km": 572.4392473256949,
        "timestamp": "2025-12-05T05:43:13.898326+00:00",
        "meta_object_name": "KOMPSAT-7",
        "meta_object_id": "2025-279A",
        "meta_epoch": "2025-12-01T20:35:16.060992",
        "meta_mean_motion": 14.98310631,
        "meta_eccentricity": 0.00097501,
        "meta_inclination": 97.6394,
        "meta_ra_of_asc_node": 281.9587,
        "meta_arg_of_pericenter": 255.3935,
        "meta_mean_anomaly": 104.6207,
        "meta_ephemeris_type": 0,
        "meta_classification_type": "U",
        "meta_norad_cat_id": 66820,
        "meta_element_set_no": 999,
        "meta_rev_at_epoch": 2,
        "meta_bstar": 8.4407298e-05,
        "meta_mean_motion_dot": 9.47e-06,
        "meta_mean_motion_ddot": 0,
        "tle_line1": "1 66820U 25279A   25335.85782478  .00000947  00000+0  84407-4 0  9990",
        "tle_line2": "2 66820  97.6394 281.9587 0009750 255.3935 104.6207 14.98310631    23"
      },
      "geometry": {
        "type": "Point",
        "coordinates": [
          98.18383257427863,
          -42.57938064936328
        ]
      }
    },
    {
      "type": "Feature",
      "properties": {
        "norad_id": 66877,
        "name": "DUMMY PAYLOAD",
        "group": "last-30-days",
        "lat": 30.621033560428632,
        "lon": 108.65332766712903,
        "alt_km": 1355.5049186681063,
        "timestamp": "2025-12-05T05:43:13.898340+00:00",
        "meta_object_name": "DUMMY PAYLOAD",
        "meta_object_id": "2025-282A",
        "meta_epoch": "2025-12-04T16:11:05.422848",
        "meta_mean_motion": 14.3900918,
        "meta_eccentricity": 0.0864537,
        "meta_inclination": 56.9559,
        "meta_ra_of_asc_node": 88.0896,
        "meta_arg_of_pericenter": 206.2177,
        "meta_mean_anomaly": 149.2529,
        "meta_ephemeris_type": 0,
        "meta_classification_type": "U",
        "meta_norad_cat_id": 66877,
        "meta_element_set_no": 999,
        "meta_rev_at_epoch": 22,
        "meta_bstar": 0.00025162,
        "meta_mean_motion_dot": 0.01123671,
        "meta_mean_motion_ddot": 7.168e-06,
        "tle_line1": "1 66877U 25282A   25338.67436832  .01123671  71680-5  25162-3 0  9990",
        "tle_line2": "2 66877  56.9559  88.0896 0864537 206.2177 149.2529 14.39009180   223"
      },
      "geometry": {
        "type": "Point",
        "coordinates": [
          108.65332766712903,
          30.621033560428632
        ]
      }
    }
  ]
}